[{"OBJECT_NAME":"STARLINK-30080","OBJECT_ID":"2023-067T","EPOCH":"2026-03-08T23:23:04.660800","MEAN_MOTION":15.01721703,"ECCENTRICITY":8.544e-5,"INCLINATION":42.9996,"RA_OF_ASC_NODE":265.3146,"ARG_OF_PERICENTER":262.4975,"MEAN_ANOMALY":97.577,"EPHEMERIS_TYPE":0,"CLASSIFICATION_TYPE":"U","NORAD_CAT_ID":56705,"ELEMENT_SET_NO":999,"REV_AT_EPOCH":15570,"BSTAR":2.3786545e-5,"MEAN_MOTION_DOT":1.13e-6,"MEAN_MOTION_DDOT":0},{"OBJECT_NAME":"FENGYUN 1C DEB","OBJECT_ID":"1999-025CRT","EPOCH":"2026-03-08T05:25:55.615296","MEAN_MOTION":14.72591337,"ECCENTRICITY":0.01689255,"INCLINATION":99.0682,"RA_OF_ASC_NODE":62.2268,"ARG_OF_PERICENTER":58.082,"MEAN_ANOMALY":303.669,"EPHEMERIS_TYPE":0,"CLASSIFICATION_TYPE":"U","NORAD_CAT_ID":32125,"ELEMENT_SET_NO":999,"REV_AT_EPOCH":71780,"BSTAR":0.003714293,"MEAN_MOTION_DOT":0.00029682,"MEAN_MOTION_DDOT":0}]
